KANOPUS-V 3             
1 43180U 18014A   26068.78605696  .00000996  00000+0  45590-4 0  9999
2 43180  97.3645 336.3173 0001530  84.6861 275.4550 15.22779463449595
YAOGAN-43 03B           
1 61618U 24190B   26068.54371741  .00011265  00000+0  46414-3 0  9998
2 61618  34.9874 104.3622 0006549 178.8126 181.2605 15.23292973 76665
