[{"OBJECT_NAME":"KANOPUS-V 3","OBJECT_ID":"2018-014A","EPOCH":"2026-03-09T18:51:55.321344","MEAN_MOTION":15.22779463,"ECCENTRICITY":0.00015305,"INCLINATION":97.3645,"RA_OF_ASC_NODE":336.3173,"ARG_OF_PERICENTER":84.6861,"MEAN_ANOMALY":275.455,"EPHEMERIS_TYPE":0,"CLASSIFICATION_TYPE":"U","NORAD_CAT_ID":43180,"ELEMENT_SET_NO":999,"REV_AT_EPOCH":44959,"BSTAR":4.5590396e-5,"MEAN_MOTION_DOT":9.96e-6,"MEAN_MOTION_DDOT":0},{"OBJECT_NAME":"YAOGAN-43 03B","OBJECT_ID":"2024-190B","EPOCH":"2026-03-09T13:02:57.184224","MEAN_MOTION":15.23292973,"ECCENTRICITY":0.00065493,"INCLINATION":34.9874,"RA_OF_ASC_NODE":104.3622,"ARG_OF_PERICENTER":178.8126,"MEAN_ANOMALY":181.2605,"EPHEMERIS_TYPE":0,"CLASSIFICATION_TYPE":"U","NORAD_CAT_ID":61618,"ELEMENT_SET_NO":999,"REV_AT_EPOCH":7666,"BSTAR":0.00046413742,"MEAN_MOTION_DOT":0.00011265,"MEAN_MOTION_DDOT":0}]
